IRIDIUM 155             
1 43573U 18061E   24309.91595441  .00000080  00000+0  21655-4 0  9994
2 43573  86.3918 302.9361 0002407  88.5582 271.5890 14.34217570328898
IRIDIUM 154             
1 43574U 18061F   24309.96669306  .00000625  00000+0  21615-3 0  9992
2 43574  86.3923 303.0197 0002138  93.1206 267.0235 14.34217848328958
IRIDIUM 163             
1 43575U 18061G   24310.01742549  .00000533  00000+0  18306-3 0  9993
2 43575  86.3923 302.9324 0002372  93.5768 266.5700 14.34222903328933
IRIDIUM 156             
1 43576U 18061H   24309.92229664  .00000025  00000+0  17608-5 0  9992
2 43576  86.3920 302.9789 0002479  84.4337 275.7141 14.34217858328917
IRIDIUM 164             
1 43577U 18061J   24309.90326808  .00000035  00000+0  52609-5 0  9990
2 43577  86.3924 303.0179 0002135  85.2622 274.8818 14.34218023328952
IRIDIUM 159             
1 43578U 18061K   24309.94132297  .00000043  00000+0  82420-5 0  9995
2 43578  86.3922 302.9509 0002124  90.3816 269.7623 14.34218067328928
IRIDIUM 180             
1 43922U 19002A   24309.87105151  .00000683  00000+0  23664-3 0  9998
2 43922  86.3982 239.8200 0002140  83.3514 276.7925 14.34218625304521
IRIDIUM 176             
1 43923U 19002B   24309.87894448  .00005149  00000+0  81160-3 0  9990
2 43923  86.6113 239.8267 0002234  96.9838 263.1634 14.72286411312545
IRIDIUM 168             
1 43924U 19002C   24309.86469971  .00000725  00000+0  25176-3 0  9999
2 43924  86.3984 239.8830 0002070  82.7041 277.4390 14.34221712304507
IRIDIUM 173             
1 43925U 19002D   24309.85201113  .00001229  00000+0  43173-3 0  9998
2 43925  86.3985 239.8018 0002201  80.7077 279.4367 14.34211189304491
IRIDIUM 169             
1 43926U 19002E   24309.90620136  .00001815  00000+0  58683-3 0  9998
2 43926  86.4191 271.4121 0003868 101.1330 259.0303 14.38610639305503
IRIDIUM 172             
1 43927U 19002F   24309.91546016  .00001451  00000+0  51111-3 0  9999
2 43927  86.3982 239.7815 0002073  81.9081 278.2350 14.34217000304508
IRIDIUM 175             
1 43928U 19002G   24309.80557258  .00004967  00000+0  78316-3 0  9999
2 43928  86.1556 205.1036 0003049  75.7284 284.4271 14.72260969312522
IRIDIUM 171             
1 43929U 19002H   24309.89641363  .00002020  00000+0  71408-3 0  9993
2 43929  86.3989 240.0305 0002224  74.3765 285.7676 14.34224509304493
IRIDIUM 170             
1 43930U 19002J   24309.88514286  .00005132  00000+0  80917-3 0  9999
2 43930  86.6112 239.8293 0002294  80.9163 279.2314 14.72272257312558
IRIDIUM 167             
1 43931U 19002K   24309.54123198  .00000712  00000+0  24730-3 0  9991
2 43931  86.3975 239.9544 0002557  78.9529 281.1954 14.34212440304445
IRIDIUM 181             
1 56726U 23068S   24309.95849207  .00000745  00000+0  21435-3 0  9990
2 56726  86.8579 300.3764 0002334  79.8861 280.2604 14.43587787 77443
IRIDIUM 177             
1 56727U 23068T   24309.90416310  .00006909  00000+0  90464-3 0  9997
2 56727  86.1975 248.5157 0003387  85.2525 274.9082 14.80256338 79193
IRIDIUM 174             
1 56728U 23068U   24309.89868711  .00006810  00000+0  89133-3 0  9994
2 56728  86.1981 248.6331 0003168  84.1531 276.0051 14.80272616 79194
IRIDIUM 178             
1 56729U 23068V   24309.96087660  .00006361  00000+0  83249-3 0  9992
2 56729  86.5742 272.7423 0002881  81.6484 278.5064 14.80273267 79200
IRIDIUM 179             
1 56730U 23068W   24309.95550377  .00006116  00000+0  80092-3 0  9994
2 56730  86.6747 278.6561 0003264  82.2773 277.8819 14.80241983 79200
